#dP2020  9 16  0  0  0.00000000      97 __u+U IGS14 FIT  IAC
## 2123 259200.00000000   900.00000000 59108 0.0000000000000
+  119   C01C02C03C04C05C06C07C08C09C10C11C12C13C14C16C19C20
+        C21C22C23C24C25C26C27C28C29C30C32C33C34C35C36C37C38
+        C39C40C43C44C45C46E01E02E03E04E05E07E08E09E11E12E13
+        E14E15E18E19E21E24E25E26E27E30E31E33E36G01G02G03G04
+        G05G06G07G08G09G10G11G12G13G15G16G17G18G19G20G21G22
+        G24G25G26G27G28G29G30G31G32J01J02J03R01R02R03R04R05
+        R07R08R11R12R13R14R15R16R17R18R19R20R21R22R23R24R26
++         0 13 13 13 12  8  8  8  8  8  7  7  7  7  8  7  7
++         7  7  7  8  7  8  7  7  7  7  7  8  8  8  7  8  9
++         9  9  9  9 11  9  4  4  4  4  4  4  4  4  4  4  4
++         4  4  4  4  4  4  4  4  4  4  4  4  4  3  3  3  4
++         3  3  3  3  3  3  3  3  4  3  3  3  3  3  3  3  3
++         3  3  3  3  3  3  3  3  3  9  9  9  6  5  5  5  5
++         5  5  5  5  6  5  5  6  5  5  6  6  5  6  5  5  8
%c M  cc GPS ccc cccc cccc cccc cccc ccccc ccccc ccccc ccccc
%c cc cc ccc ccc cccc cccc cccc cccc ccccc ccccc ccccc ccccc
%f  1.2500000  1.025000000  0.00000000000  0.000000000000000
%f  0.0000000  0.000000000  0.00000000000  0.000000000000000
%i    0    0    0    0      0      0      0      0         0
%i    0    0    0    0      0      0      0      0         0
/* INFORMATION & ANALYSIS CENTER (IAC)            FINAL DATA
/* S/V CLOCKS ARE ALIGNED TO GNSS TIME                      
/* G:C1WC2W R:C1PC2P E:C1XC5X C:C2IC6I J:C1CC2S             
/* PCV:IGS14_2118 OL/AL:FES2004  NONE     YN ORB:CoN CLK:CoN
*  2020 09 16 13 15  0.00000000
PC01      0.000000      0.000000      0.000000 999999.999999
PC02   4428.467231  41920.024605   -220.099401    833.070814
PC03 -14746.982772  39506.848234  -1037.201643    796.674213
PC04 -39619.586958  14481.628272   -626.423311    285.694740
PC05  21901.111389  36023.913738    -68.346993   -256.607125
PC06 -22459.975025  24342.565421  26246.130069     -0.846757
PC07 -16405.948042  38013.001108   9564.245790    -17.426106
PC08  -6322.955813  22985.936413 -34621.051158   -529.662573
PC09  -6969.339250  25283.670388  33196.883001    813.749302
PC10  -6439.066935  41773.453383  -3246.181197   -185.469894
PC11   7109.950087  14763.702048 -22520.004537   -624.509891
PC12 -13936.891489  13375.245284 -20122.247465    512.862570
PC13   6473.901537  31310.048314 -27254.990016    649.993211
PC14   -156.835178  23124.567327  15681.377620    165.461388
PC16 -18884.995880  24773.386771  28404.043336   -589.601365
PC19  -7500.311472 -16724.035313 -21019.638000    548.304110
PC20   6906.398592 -25526.893058  -8855.301769   -843.981782
PC21 -17837.816123  19449.508301  -9096.402055   -679.011748
PC22 -17949.054698   2011.860324 -21284.329517   -766.014885
PC23  19769.267415   8625.174856 -17692.583854   -865.074826
PC24   1980.397755  23721.505377  14551.883201   -727.541609
PC25  16353.330652  22436.672135  -2713.586258   -758.758234
PC26 -11712.812006  11524.997570  22552.111906    832.377227
PC27  22345.917341  -9532.715983  13723.424832    399.934414
PC28  27606.266883   2234.882739  -3350.946457   -169.567306
PC29 -17196.409367 -12026.282015  18391.598399    284.644040
PC30   3854.972867 -15836.433601  22649.776193    376.548440
PC32  17707.633443 -19533.848922   9135.830757   -904.524260
PC33   7536.396526  16799.374968  20974.908182   -798.212631
PC34  -3215.473930  15903.269697 -22710.164376   -853.397571
PC35 -27626.237054  -1443.746014   3559.034827   -651.468657
PC36 -15729.303381 -22914.092833   2514.963551   -919.616361
PC37  12404.909480 -10598.811990 -22611.588957   -924.775757
PC38  -4667.523594  26699.555329 -32270.260431    100.788233
PC39 -16845.581219  26010.008299  28546.183661     22.473580
PC40 -12208.338237  40426.841508  -1894.064323     81.707904
PC43  16797.738209  12375.774593 -18544.224218   -375.213085
PC44 -22120.515311  10258.033757 -13554.463133   -216.887770
PC45 -19727.488574  -8575.447182  17800.991105 999999.999999
PC46  -2693.716747 -23946.247302 -14081.648747    636.252753
PE01  16209.167947  -3236.729985 -24544.747121   -941.981087
PE02 -16202.399865   3355.948538  24551.135954    162.062558
PE03 -26056.232888   9271.128861 -10577.604230   -343.488867
PE04  19763.184013 -20651.740274  -7677.759807   -608.271443
PE05 -17137.012322  -7711.039004 -22872.454451   -345.636088
PE07  -1718.170715  20053.466762  21712.575003   -436.776328
PE08 -19500.932149  20815.685683   7943.643814   6119.839065
PE09   1523.462365 -19895.293083 -21857.141220   5929.021711
PE11  -9209.439507 -19038.008940  20698.324530   5550.950410
PE12  12542.308857 -11742.760816  24101.500462   5602.698164
PE13   9019.971397  18921.828165 -20895.838886    403.706219
PE14  14605.396445  15585.085527 -23515.069378  -1157.841312
PE15 -12288.333306  11828.784958 -24189.524152    852.276425
PE18 -20603.156714  -5183.489769  13309.373293  -1265.307378
PE19  25752.435428  -7546.750474  12492.027943     79.914800
PE21  14235.260167  18029.003847 -18662.580896   -621.726783
PE24  -3489.521760 -29370.987239   1354.186072   5241.061749
PE25 -14197.408317 -18151.996996  18589.406127   -516.710262
PE26  25169.917958  14812.964658  -4775.671892   2719.780118
PE27   3895.449433  29289.673902  -1746.982199    132.912996
PE30  -9116.879748  22848.832086  16457.457204   3580.019181
PE31   8652.088516 -23291.104752 -16068.461186   -474.168400
PE33  26363.713320   2207.911469  13273.509644   -462.778454
PE36 -25021.535933 -14897.372883   5327.058175    506.711606
PG01  22036.278260  14592.599801   3812.838178     35.965772
PG02  -9606.187485 -19806.975286  15528.307094   -517.214904
PG03  13254.687828   9277.831472  21004.002828   -300.689336
PG04  22136.288811   2859.420044  14431.713017   -136.540049
PG05  -3047.617706 -24964.155858  -8388.897665    -21.232839
PG06   4681.555751 -14777.422836  21612.923496   -326.133092
PG07  20302.490401    926.805005 -17024.106507   -373.733882
PG08  13885.580214   9563.029709 -20576.316497    -48.180615
PG09  25227.751777  -7277.141660   4005.395190   -286.862898
PG10 -11624.801036  20251.955174 -12327.359149   -456.093629
PG11  20890.274246  12564.432474 -10586.491844   -162.750088
PG12 -11614.753650 -11755.787898  20593.946199     66.463128
PG13  -4449.458352 -14453.669852 -21962.870498     45.827106
PG15 -15812.467782  -8583.798804 -19980.900079   -203.286838
PG16   1615.429249  24066.335698 -10804.386370   -209.878033
PG17  18138.001554 -14885.338894  12831.673388    326.730681
PG18 -19399.206799    180.611796 -18174.289609    291.217834
PG19  12418.564108 -15449.493564  17354.472061   -104.126774
PG20 -14814.575503   9512.377804 -19897.552512    526.717150
PG21   9246.849205  19394.165288 -15097.474257     47.753264
PG22  11694.070022  16919.524302  17084.830288   -753.823405
PG24 -22102.244188 -15089.340311    395.565644    -18.611595
PG25 -15262.745119   1394.227443  21430.694288     49.936826
PG26  -5021.484372  25790.566347   2854.013123    279.779763
PG27   1858.446356  15105.200985 -21879.274815   -396.943995
PG28  12326.174957 -21015.717400 -10174.901530    678.136898
PG29 -25445.148345   3083.182595   7019.717508   -195.968841
PG30  13424.171714  -8898.713631 -21091.177200   -302.826836
PG31  -3561.138919  16072.664609  20697.298118    -69.067856
PG32 -16719.898077  16268.447269  12640.253194    346.961140
PJ01 -26365.738265  32470.788996   -873.150921   -346.677808
PJ02 -25861.239952  24071.794037  27893.093976     -3.771567
PJ03 -34066.816075  17568.318029 -12967.526393     -1.164740
PR01  -5811.502204  19399.851317  15515.375361     67.650802
PR02  10440.758399   4360.294709  22901.259088    445.857118
PR03  18007.732154 -11210.466757  14242.587871     22.131752
PR04  15278.880716 -20289.747937  -2365.947599     54.756679
PR05   4094.959528 -17937.621507 -17672.843465     57.668539
PR07 -18050.612772  11650.733436 -13685.846101    -40.145241
PR08 -15228.439913  20307.965660   2475.907319    -54.594654
PR11  -2506.802319  17957.432798  17989.179114    -37.856370
PR12   7327.307047  24164.837401   3585.732389    164.259159
PR13  13513.203518  16896.234940 -13524.838458    -43.934481
PR14  11529.678495   -453.593906 -22730.632839     55.599385
PR15   2987.396706 -17221.513725 -18548.720975    106.980398
PR16  -8215.072006 -24055.975982  -2805.004339     -6.378246
PR17  24286.599923    581.481124   7702.402433    358.593884
PR18  13321.112443  -7074.858592  20594.832001     49.570215
PR19  -3964.998392 -11060.478028  22639.572730   -111.432584
PR20 -21494.705509  -9001.940149  10340.538329   -421.921352
PR21 -24003.614123   -178.523125  -8686.489181   -152.574401
PR22 -12071.319271   7459.312322 -21190.938247    -73.158274
PR23  11731.690794  11079.834935 -19762.369556    332.354047
PR24  21953.317661   8753.722826  -9552.872434     13.506203
PR26 -18143.623009 -10003.093223  14913.840000   -361.766290
EOF
